SL-16 R/B               
1 24298U 96051B   26114.13726262  .00000083  00000+0  71552-4 0  9993
2 24298  70.7598  79.0420 0012494  69.5316 290.7143 14.12427284528067
ORBVIEW 2 (SEASTAR)     
1 24883U 97037A   26114.00252448  .00000188  00000+0  81600-4 0  9995
2 24883  98.8640 279.5329 0001130 298.6380  61.4691 14.35523971514973
SL-16 R/B               
1 25400U 98043G   26113.63598477  .00000041  00000+0  36337-4 0  9997
2 25400  98.8323  67.3393 0008851 241.5249 118.5040 14.26059338445391
SL-16 R/B               
1 25407U 98045B   26114.20198133 -.00000250  00000+0 -10211-3 0  9991
2 25407  71.0097  85.8607 0009262 305.2330  54.7926 14.16197255433546
ISS (ZARYA)             
1 25544U 98067A   26113.61927546  .00009382  00000+0  17870-3 0  9990
2 25544  51.6319 210.1816 0006828 342.1779  17.8969 15.48913482563293
CZ-4B R/B               
1 25732U 99025C   26114.09188203  .00000025  00000+0  33033-4 0  9991
2 25732  98.6538 157.2783 0036530 212.7916 174.6668 14.18273702394603
OKEAN-O                 
1 25860U 99039A   26114.14122191  .00000396  00000+0  58684-4 0  9998
2 25860  97.9359 173.5498 0001469 115.4462 244.6902 14.80399883441116
SL-16 R/B               
1 25861U 99039B   26114.14599644  .00000362  00000+0  52614-4 0  9990
2 25861  97.9879 173.1531 0016136 108.6286 251.6680 14.81787913443594
DELTA 2 R/B             
1 25876U 99041E   26114.17077589  .00000457  00000+0  11333-3 0  9998
2 25876  51.7593 119.5842 0502498 122.5453 242.5049 14.11925941369450
HELIOS 1B               
1 25977U 99064A   26114.17817450  .00001088  00000+0  12533-3 0  9998
2 25977  98.1654  17.7506 0000431  70.9220 289.2042 14.87855296692020
TERRA                   
1 25994U 99068A   26114.18679991  .00000292  00000+0  68493-4 0  9991
2 25994  97.9505 165.8621 0003282  60.3941 346.3479 14.61058497401728
SL-16 R/B               
1 26070U 00006B   26114.08795436  .00000214  00000+0  13270-3 0  9999
2 26070  71.0044   2.3799 0014636 115.9865 244.2767 14.15829518354983
TITAN 4B R/B            
1 26474U 00047B   26113.94480168  .00002026  00000+0  13062-3 0  9991
2 26474  67.9882 273.2157 0042312 343.7367  16.2421 15.09900689399742
ENVISAT                 
1 27386U 02009A   26113.62009660  .00000073  00000+0  37366-4 0  9997
2 27386  98.3795  66.1686 0001146  86.1933  87.0218 14.39051108265634
IDEFIX & ARIANE 42P R/B 
1 27422U 02021B   26113.94331883  .00000175  00000+0  82933-4 0  9995
2 27422  98.5918  52.0236 0012874  57.1734 303.0687 14.31054275250495
AQUA                    
1 27424U 02022A   26114.19528103  .00000603  00000+0  12992-3 0  9992
2 27424  98.4242  82.4155 0002007  97.9758 318.4045 14.62069895275389
CZ-4B R/B               
1 27432U 02024C   26114.12144507  .00000016  00000+0  31189-4 0  9996
2 27432  98.8749 167.2791 0049122 253.5634 125.4611 14.14555266235665
MIDORI II (ADEOS-II)    
1 27597U 02056A   26113.60620635  .00000208  00000+0  99346-4 0  9998
2 27597  98.7838  72.4165 0000694 145.7502 214.3725 14.29316826216716
H-2A R/B                
1 27601U 02056E   26113.92631574  .00000250  00000+0  10201-3 0  9992
2 27601  98.3274  72.5919 0070863  27.7688  20.7794 14.33791523220591
CZ-4B R/B               
1 28059U 03049C   26113.97600676  .00000274  00000+0  74150-4 0  9997
2 28059  98.6899 110.6691 0049339  93.4510 267.2331 14.55057969193186
CZ-2C R/B               
1 28222U 04012C   26114.12992727  .00052339  00000+0  43134-3 0  9995
2 28222  97.7135 183.9060 0013854 142.0315 218.1926 15.70092370211393
SL-16 R/B               
1 28353U 04021B   26114.13726170 -.00000204  00000+0 -81455-4 0  9993
2 28353  70.9988 137.1206 0006806 311.3205  48.7331 14.14604817129261
CZ-4B R/B               
1 28415U 04035C   26114.05240207  .00005661  00000+0  19586-3 0  9995
2 28415  97.3426 147.7569 0032209 164.4795 195.7441 15.29786631186840
CZ-2C R/B               
1 28480U 04046B   26114.20209837  .00000121  00000+0  60126-4 0  9993
2 28480  98.1968  26.3489 0139924  20.7939 339.8858 14.27009510114992
ARIANE 5 R/B            
1 28499U 04049H   26113.70106048  .00000685  00000+0  81952-4 0  9995
2 28499  98.2687 283.8628 0083539 204.3987 155.3263 14.85348273152471
CZ-2D R/B               
1 28738U 05024B   26113.99421382  .00034358  00000+0  36186-3 0  9999
2 28738  97.3549 130.9380 0004493 174.8423 185.2883 15.64198157146856
ALOS (DAICHI)           
1 28931U 06002A   26113.63578078  .00000791  00000+0  14039-3 0  9994
2 28931  98.1284  69.3917 0001893 106.3471 253.7943 14.69932587 80088
H-2A R/B                
1 28932U 06002B   26113.99253191  .00005766  00000+0  28278-3 0  9997
2 28932  98.2499 264.9710 0052552  87.8455 272.8793 15.17349909101303
RESURS-DK 1             
1 29228U 06021A   26114.15690881  .00001812  00000+0  10854-3 0  9996
2 29228  69.9297 119.3901 0003124 343.6065  16.5000 15.12977179 94406
CZ-4B R/B               
1 29507U 06046C   26114.11870522  .00003356  00000+0  16920-3 0  9996
2 29507  97.5510 158.8971 0034607 109.5383 250.9592 15.17333156 66931
CZ-2C R/B               
1 31114U 07010B   26114.16628664  .00000083  00000+0  56960-4 0  9991
2 31114  98.4034 225.1770 0059473 160.9765 199.3653 14.20261713986170
