OBJECT_NAME,OBJECT_ID,EPOCH,MEAN_MOTION,ECCENTRICITY,INCLINATION,RA_OF_ASC_NODE,ARG_OF_PERICENTER,MEAN_ANOMALY,EPHEMERIS_TYPE,CLASSIFICATION_TYPE,NORAD_CAT_ID,ELEMENT_SET_NO,REV_AT_EPOCH,BSTAR,MEAN_MOTION_DOT,MEAN_MOTION_DDOT
SL-16 R/B,1996-051B,2026-04-24T03:17:39.490368,14.12427284,.0012494,70.7598,79.0420,69.5316,290.7143,0,U,24298,999,52806,.71552E-4,.83E-6,0
ORBVIEW 2 (SEASTAR),1997-037A,2026-04-24T00:03:38.115072,14.35523971,.000113,98.8640,279.5329,298.6380,61.4691,0,U,24883,999,51497,.816E-4,.188E-5,0
SL-16 R/B,1998-043G,2026-04-23T15:15:49.084128,14.26059338,.00088515,98.8323,67.3393,241.5249,118.5040,0,U,25400,999,44539,.36337228E-4,.41E-6,0
SL-16 R/B,1998-045B,2026-04-24T04:50:51.186912,14.16197255,.0009262,71.0097,85.8607,305.2330,54.7926,0,U,25407,999,43354,-.10211E-3,-.25E-5,0
ISS (ZARYA),1998-067A,2026-04-23T14:51:45.399744,15.48913482,.0006828,51.6319,210.1816,342.1779,17.8969,0,U,25544,999,56329,.1787E-3,.9382E-4,0
CZ-4B R/B,1999-025C,2026-04-24T02:12:18.607392,14.18273702,.003653,98.6538,157.2783,212.7916,174.6668,0,U,25732,999,39460,.33033E-4,.25E-6,0
OKEAN-O,1999-039A,2026-04-24T03:23:21.573024,14.80399883,.0001469,97.9359,173.5498,115.4462,244.6902,0,U,25860,999,44111,.58684E-4,.396E-5,0
SL-16 R/B,1999-039B,2026-04-24T03:30:14.092416,14.81787913,.0016136,97.9879,173.1531,108.6286,251.6680,0,U,25861,999,44359,.52614E-4,.362E-5,0
DELTA 2 R/B,1999-041E,2026-04-24T04:05:55.036896,14.11925941,.0502498,51.7593,119.5842,122.5453,242.5049,0,U,25876,999,36945,.11333E-3,.457E-5,0
HELIOS 1B,1999-064A,2026-04-24T04:16:34.276800,14.87855296,.0000431,98.1654,17.7506,70.9220,289.2042,0,U,25977,999,69202,.12533E-3,.1088E-4,0
TERRA,1999-068A,2026-04-24T04:28:59.512224,14.61058497,.0003282,97.9505,165.8621,60.3941,346.3479,0,U,25994,999,40172,.68493E-4,.292E-5,0
SL-16 R/B,2000-006B,2026-04-24T02:06:39.256704,14.15829518,.0014636,71.0044,2.3799,115.9865,244.2767,0,U,26070,999,35498,.1327E-3,.214E-5,0
TITAN 4B R/B,2000-047B,2026-04-23T22:40:30.865152,15.09900689,.0042312,67.9882,273.2157,343.7367,16.2421,0,U,26474,999,39974,.13062E-3,.2026E-4,0
ENVISAT,2002-009A,2026-04-23T14:52:56.346240,14.39051108,.00011463,98.3795,66.1686,86.1933,87.0218,0,U,27386,999,26563,.37366381E-4,.73E-6,0
IDEFIX & ARIANE 42P R/B,2002-021B,2026-04-23T22:38:22.746912,14.31054275,.0012874,98.5918,52.0236,57.1734,303.0687,0,U,27422,999,25049,.82933E-4,.175E-5,0
AQUA,2002-022A,2026-04-24T04:41:12.280992,14.62069895,.0002007,98.4242,82.4155,97.9758,318.4045,0,U,27424,999,27538,.12992E-3,.603E-5,0
CZ-4B R/B,2002-024C,2026-04-24T02:54:52.854048,14.14555266,.0049122,98.8749,167.2791,253.5634,125.4611,0,U,27432,999,23566,.31189E-4,.16E-6,0
MIDORI II (ADEOS-II),2002-056A,2026-04-23T14:32:56.228640,14.29316826,.00006944,98.7838,72.4165,145.7502,214.3725,0,U,27597,999,21671,.9934606E-4,.208E-5,0
H-2A R/B,2002-056E,2026-04-23T22:13:53.679936,14.33791523,.00708632,98.3274,72.5919,27.7688,20.7794,0,U,27601,999,22059,.10201415E-3,.25E-5,0
CZ-4B R/B,2003-049C,2026-04-23T23:25:26.984064,14.55057969,.0049339,98.6899,110.6691,93.4510,267.2331,0,U,28059,999,19318,.7415E-4,.274E-5,0
CZ-2C R/B,2004-012C,2026-04-24T03:07:05.716128,15.70092370,.0013854,97.7135,183.9060,142.0315,218.1926,0,U,28222,999,21139,.43134E-3,.52339E-3,0
SL-16 R/B,2004-021B,2026-04-24T03:17:39.410880,14.14604817,.0006806,70.9988,137.1206,311.3205,48.7331,0,U,28353,999,12926,-.81455E-4,-.204E-5,0
CZ-4B R/B,2004-035C,2026-04-24T01:15:27.538848,15.29786631,.0032209,97.3426,147.7569,164.4795,195.7441,0,U,28415,999,18684,.19586E-3,.5661E-4,0
CZ-2C R/B,2004-046B,2026-04-24T04:51:01.299168,14.27009510,.0139924,98.1968,26.3489,20.7939,339.8858,0,U,28480,999,11499,.60126E-4,.121E-5,0
ARIANE 5 R/B,2004-049H,2026-04-23T16:49:31.625472,14.85348273,.00835398,98.2687,283.8628,204.3987,155.3263,0,U,28499,999,15247,.81951853E-4,.685E-5,0
CZ-2D R/B,2005-024B,2026-04-23T23:51:40.074048,15.64198157,.0004493,97.3549,130.9380,174.8423,185.2883,0,U,28738,999,14685,.36186E-3,.34358E-3,0
ALOS (DAICHI),2006-002A,2026-04-23T15:15:31.459392,14.69932587,.00018931,98.1284,69.3917,106.3471,253.7943,0,U,28931,999,8008,.14038541E-3,.791E-5,0
H-2A R/B,2006-002B,2026-04-23T23:49:14.757024,15.17349909,.0052552,98.2499,264.9710,87.8455,272.8793,0,U,28932,999,10130,.28278E-3,.5766E-4,0
RESURS-DK 1,2006-021A,2026-04-24T03:45:56.921184,15.12977179,.0003124,69.9297,119.3901,343.6065,16.5000,0,U,29228,999,9440,.10854E-3,.1812E-4,0
CZ-4B R/B,2006-046C,2026-04-24T02:50:56.131008,15.17333156,.0034607,97.5510,158.8971,109.5383,250.9592,0,U,29507,999,6693,.1692E-3,.3356E-4,0
CZ-2C R/B,2007-010B,2026-04-24T03:59:27.165696,14.20261713,.0059473,98.4034,225.1770,160.9765,199.3653,0,U,31114,999,98617,.5696E-4,.83E-6,0
